NORAD_CAT_ID,OBJECT_NAME,OBJECT_TYPE,EPOCH,MEAN_MOTION,ECCENTRICITY,INCLINATION,RA_OF_ASC_NODE,ARG_OF_PERICENTER,MEAN_ANOMALY,BSTAR,MEAN_MOTION_DOT,MEAN_MOTION_DDOT,TLE_LINE0,TLE_LINE1,TLE_LINE2,SEMIMAJOR_AXIS,PERIOD,APOGEE,PERIGEE,DECAYED
50204.0,STARLINK-3254,PAYLOAD,2023-04-01 18:32:44,15.0882578,0.0001885,53.2165,15.6307,121.3023,238.8154,0.0030496,0.00048562,0.0,0 STARLINK-3254,1 50204U 21125BA  23091.77273378  .00048562  00000-0  30496-2 0  9990,2 50204  53.2165  15.6307 0001885 121.3023 238.8154 15.08825780 71688,6917.924,95.438,541.093,538.485,0.0
50204.0,STARLINK-3254,PAYLOAD,2023-04-02 02:29:39,15.08834636,0.0001288,53.2173,14.1436,129.9252,230.1853,0.0013155,0.00020707,0.0,0 STARLINK-3254,1 50204U 21125BA  23092.10393407  .00020707  00000-0  13155-2 0  9998,2 50204  53.2173  14.1436 0001288 129.9252 230.1853 15.08834636 71736,6917.897,95.438,540.653,538.871,0.0
50204.0,STARLINK-3254,PAYLOAD,2023-04-02 18:23:31,15.08852975,0.0001297,53.2183,11.1704,112.4769,247.6361,0.0011457,0.00017999,0.0,0 STARLINK-3254,1 50204U 21125BA  23092.76633473  .00017999  00000-0  11457-2 0  9992,2 50204  53.2183  11.1704 0001297 112.4769 247.6361 15.08852975 74963,6917.841,95.437,540.603,538.808,0.0
50204.0,STARLINK-3254,PAYLOAD,2023-04-03 03:55:49,15.08877654,9.94e-05,53.2177,9.3865,92.5682,267.5424,0.0016343,0.00025844,0.0,0 STARLINK-3254,1 50204U 21125BA  23093.16376803  .00025844  00000-0  16343-2 0  9995,2 50204  53.2177   9.3865 0000994  92.5682 267.5424 15.08877654 71899,6917.765,95.435,540.318,538.943,0.0
50204.0,STARLINK-3254,PAYLOAD,2023-04-03 21:25:04,15.08848522,0.0001135,53.2184,6.1166,83.7841,276.3281,0.00039297,5.973e-05,0.0,0 STARLINK-3254,1 50204U 21125BA  23093.89241220  .00005973  00000-0  39297-3 0  9994,2 50204  53.2184   6.1166 0001135  83.7841 276.3281 15.08848522 75135,6917.854,95.437,540.505,538.934,0.0
50204.0,STARLINK-3254,PAYLOAD,2023-04-04 03:46:36,15.08858104,0.0001119,53.2178,4.9258,65.9808,294.1302,0.00094477,0.00014787,0.0,0 STARLINK-3254,1 50204U 21125BA  23094.15737123  .00014787  00000-0  94477-3 0  9990,2 50204  53.2178   4.9258 0001119  65.9808 294.1302 15.08858104 72049,6917.825,95.436,540.464,538.916,0.0
50204.0,STARLINK-3254,PAYLOAD,2023-04-04 08:32:46,15.08859578,0.0001166,53.2176,4.0337,66.7977,293.3138,0.0010573,0.00016588,0.0,0 STARLINK-3254,1 50204U 21125BA  23094.35609029  .00016588  00000-0  10573-2 0  9990,2 50204  53.2176   4.0337 0001166  66.7977 293.3138 15.08859578 75209,6917.821,95.436,540.492,538.879,0.0
50204.0,STARLINK-3254,PAYLOAD,2023-04-04 21:15:51,15.08848422,0.0001025,53.2187,1.6583,63.4352,296.6745,0.00039924,6.073e-05,0.0,0 STARLINK-3254,1 50204U 21125BA  23094.88601128  .00006073  00000-0  39924-3 0  9990,2 50204  53.2187   1.6583 0001025  63.4352 296.6745 15.08848422 72159,6917.855,95.437,540.429,539.011,0.0
50204.0,STARLINK-3254,PAYLOAD,2023-04-05 02:02:00,15.08864136,0.0001093,53.218,0.7632,87.131,272.9807,0.00094541,0.000148,0.0,0 STARLINK-3254,1 50204U 21125BA  23095.08472735  .00014800  00000-0  94541-3 0  9996,2 50204  53.2180   0.7632 0001093  87.1310 272.9807 15.08864136 72188,6917.807,95.436,540.428,538.915,0.0
50204.0,STARLINK-3254,PAYLOAD,2023-04-05 21:06:37,15.08849844,0.0002043,53.2185,357.1938,135.9805,224.135,0.00050057,7.69e-05,0.0,0 STARLINK-3254,1 50204U 21125BA  23095.87960576  .00007690  00000-0  50057-3 0  9991,2 50204  53.2185 357.1938 0002043 135.9805 224.1350 15.08849844 75430,6917.85,95.437,541.129,538.302,0.0
50204.0,STARLINK-3254,PAYLOAD,2023-04-05 22:42:01,15.0885023,0.0002007,53.219,356.8962,135.986,224.1293,0.00050292,7.727e-05,0.0,0 STARLINK-3254,1 50204U 21125BA  23095.94584544  .00007727  00000-0  50292-3 0  9998,2 50204  53.2190 356.8962 0002007 135.9860 224.1293 15.08850230 72311,6917.849,95.437,541.103,538.326,0.0
50204.0,STARLINK-3254,PAYLOAD,2023-04-06 01:52:47,15.08852999,0.0001397,53.2191,356.3086,115.8477,244.2659,0.00049963,7.675e-05,0.0,0 STARLINK-3254,1 50204U 21125BA  23096.07832698  .00007675  00000-0  49963-3 0  9994,2 50204  53.2191 356.3086 0001397 115.8477 244.2659 15.08852999 75468,6917.841,95.437,540.672,538.739,0.0
50204.0,STARLINK-3254,PAYLOAD,2023-04-06 17:46:46,15.08654891,0.0001415,53.2177,353.3309,143.6271,216.4817,-0.0025056,-0.00039744,0.0,0 STARLINK-3254,1 50204U 21125BA  23096.74081962 -.00039744  00000-0 -25056-2 0  9998,2 50204  53.2177 353.3309 0001415 143.6271 216.4817 15.08654891 72431,6918.446,95.449,541.29,539.332,0.0
50204.0,STARLINK-3254,PAYLOAD,2023-04-07 00:08:02,15.09296967,0.0009737,53.2176,352.1412,185.0424,175.0472,0.014562,0.00242727,0.0,0 STARLINK-3254,1 50204U 21125BA  23097.00557997  .00242727  00000-0  14562-1 0  9998,2 50204  53.2176 352.1412 0009737 185.0424 175.0472 15.09296967 72475,6916.484,95.409,545.084,531.614,0.0
50204.0,STARLINK-3254,PAYLOAD,2023-04-07 14:00:01,15.07991855,0.0001133,53.2168,349.5519,96.9318,159.7741,0.0050257,0.00078743,0.0,0 STARLINK-3254,1 50204U 21125BA  23097.58334491  .00078743  00000-0  50257-2 0  9990,2 50204  53.2168 349.5519 0001133  96.9318 159.7741 15.07991855 72551,6920.474,95.491,543.123,541.555,0.0
50204.0,STARLINK-3254,PAYLOAD,2023-04-07 22:00:00,15.0796509,0.0001438,53.2167,348.0589,83.3257,183.9979,0.03097,0.00511605,0.0,0 STARLINK-3254,1 50204U 21125BA  23097.91667824  .00511605  00000-0  30970-1 0  9994,2 50204  53.2167 348.0589 0001438  83.3257 183.9979 15.07965090 72601,6920.556,95.493,543.416,541.426,0.0
50204.0,STARLINK-3254,PAYLOAD,2023-04-08 08:00:01,15.08401299,0.0001741,53.2162,346.1898,85.7341,285.0719,0.026742,0.00443275,0.0,0 STARLINK-3254,1 50204U 21125BA  23098.33334491  .00443275  00000-0  26742-1 0  9991,2 50204  53.2162 346.1898 0001741  85.7341 285.0719 15.08401299  1307,6919.222,95.465,542.291,539.882,0.0
50204.0,STARLINK-3254,PAYLOAD,2023-04-09 06:12:46,15.08597463,0.000216,53.2167,342.0382,124.5896,235.5299,0.013556,0.00220827,0.0,0 STARLINK-3254,1 50204U 21125BA  23099.25886827  .00220827  00000-0  13556-1 0  9993,2 50204  53.2167 342.0382 0002160 124.5896 235.5299 15.08597463 72814,6918.622,95.453,541.981,538.992,0.0
50204.0,STARLINK-3254,PAYLOAD,2023-04-09 22:06:34,15.08803351,0.0001681,53.2149,339.0627,78.3832,281.7349,0.0024085,0.00038213,0.0,0 STARLINK-3254,1 50204U 21125BA  23099.92123513  .00038213  00000-0  24085-2 0  9999,2 50204  53.2149 339.0627 0001681  78.3832 281.7349 15.08803351 72911,6917.992,95.44,541.02,538.694,0.0
50204.0,STARLINK-3254,PAYLOAD,2023-04-10 01:17:20,15.08836871,0.0001689,53.215,338.4672,78.3455,281.7727,0.00099757,0.00015623,0.0,0 STARLINK-3254,1 50204U 21125BA  23100.05371250  .00015623  00000-0  99757-3 0  9998,2 50204  53.2150 338.4672 0001689  78.3455 281.7727 15.08836871 72930,6917.89,95.438,540.923,538.587,0.0
50204.0,STARLINK-3254,PAYLOAD,2023-04-10 21:57:20,15.08861567,0.0001655,53.2152,334.6012,78.6745,281.4433,0.00095289,0.00014919,0.0,0 STARLINK-3254,1 50204U 21125BA  23100.91481640  .00014919  00000-0  95289-3 0  9991,2 50204  53.2152 334.6012 0001655  78.6745 281.4433 15.08861567 73062,6917.814,95.436,540.824,538.535,0.0
50204.0,STARLINK-3254,PAYLOAD,2023-04-11 14:00:01,15.08809827,0.0001227,53.2164,331.5989,92.8443,300.5756,0.0037338,0.00059589,0.0,0 STARLINK-3254,1 50204U 21125BA  23101.58334491  .00059589  00000-0  37338-2 0  9998,2 50204  53.2164 331.5989 0001227  92.8443 300.5756 15.08809827  1302,6917.973,95.439,540.686,538.989,0.0
50204.0,STARLINK-3254,PAYLOAD,2023-04-11 22:00:00,15.08876182,0.0001301,53.2165,330.1041,76.55,328.4666,-0.0056707,-0.00089505,0.0,0 STARLINK-3254,1 50204U 21125BA  23101.91667824 -.00089505  00000-0 -56707-2 0  9998,2 50204  53.2165 330.1041 0001301  76.5500 328.4666 15.08876182 73219,6917.77,95.435,540.535,538.735,0.0
50204.0,STARLINK-3254,PAYLOAD,2023-04-12 00:00:00,15.08841241,0.0001293,53.2167,329.7303,73.8591,64.0693,-0.0022877,-0.00036513,0.0,0 STARLINK-3254,1 50204U 21125BA  23102.00001157 -.00036513  00000-0 -22877-2 0  9992,2 50204  53.2167 329.7303 0001293  73.8591  64.0693 15.08841241 73228,6917.877,95.437,540.636,538.847,0.0
50204.0,STARLINK-3254,PAYLOAD,2023-04-12 15:17:21,15.0884233,0.0001783,53.2158,326.8696,69.2438,290.8745,0.00051574,7.93e-05,0.0,0 STARLINK-3254,1 50204U 21125BA  23102.63706014  .00007930  00000-0  51574-3 0  9991,2 50204  53.2158 326.8696 0001783  69.2438 290.8745 15.08842330 73322,6917.873,95.437,540.972,538.505,0.0
50204.0,STARLINK-3254,PAYLOAD,2023-04-13 00:49:40,15.08844415,0.0001451,53.2171,325.086,82.2614,277.8543,-3.1902e-05,-7.96e-06,0.0,0 STARLINK-3254,1 50204U 21125BA  23103.03449660 -.00000796  00000-0 -31902-4 0  9996,2 50204  53.2171 325.0860 0001451  82.2614 277.8543 15.08844415 76515,6917.867,95.437,540.736,538.728,0.0
50204.0,STARLINK-3254,PAYLOAD,2023-04-14 02:15:50,15.0885856,0.0001263,53.2169,320.3279,81.4,278.7135,0.00054198,8.353e-05,0.0,0 STARLINK-3254,1 50204U 21125BA  23104.09433351  .00008353  00000-0  54198-3 0  9999,2 50204  53.2169 320.3279 0001263  81.4000 278.7135 15.08858560 76675,6917.824,95.436,540.562,538.815,0.0
50204.0,STARLINK-3254,PAYLOAD,2023-04-14 21:20:28,15.08851333,0.0002061,53.2166,316.7606,98.9271,261.1954,0.00031286,4.696e-05,0.0,0 STARLINK-3254,1 50204U 21125BA  23104.88921680  .00004696  00000-0  31286-3 0  9992,2 50204  53.2166 316.7606 0002061  98.9271 261.1954 15.08851333 73667,6917.846,95.437,541.137,538.285,0.0
50204.0,STARLINK-3254,PAYLOAD,2023-04-15 00:31:14,15.08849894,0.0001519,53.2163,316.1655,86.1127,274.0039,0.00037141,5.63e-05,0.0,0 STARLINK-3254,1 50204U 21125BA  23105.02169718  .00005630  00000-0  37141-3 0  9990,2 50204  53.2163 316.1655 0001519  86.1127 274.0039 15.08849894 76814,6917.85,95.437,540.766,538.664,0.0
50204.0,STARLINK-3254,PAYLOAD,2023-04-15 21:11:15,15.08840606,0.000166,53.2169,312.301,85.1887,274.9295,0.00025562,3.783e-05,0.0,0 STARLINK-3254,1 50204U 21125BA  23105.88282083  .00003783  00000-0  25562-3 0  9996,2 50204  53.2169 312.3010 0001660  85.1887 274.9295 15.08840606 73814,6917.879,95.438,540.892,538.595,0.0
